     3.03           N: GNSS NAV DATA    M: Mixed            RINEX VERSION / TYPE
NavServer           QXWZ                20190803 235518 GMT PGM / RUN BY / DATE 
Merged GPS/GLO/BDS navigation file                          COMMENT             
    18                                                      LEAP SECONDS        
                                                            END OF HEADER       
G29 2019 08 03 20 00 00 1.344108022749e-04-9.890754881781e-12 0.000000000000e+00
     7.100000000000e+01 1.047500000000e+02 3.806229973328e-09-1.529317955946e-01
     5.189329385757e-06 1.217632205226e-03 1.047179102898e-05 5.153721374512e+03
     5.904000000000e+05 1.676380634308e-08 1.186059343515e+00-3.725290298462e-09
     9.856043688467e-01 1.889375000000e+02 1.895891368834e+00-7.820682905692e-09
     4.314465429089e-10 0.000000000000e+00 2.064000000000e+03 0.000000000000e+00
     0.000000000000e+00 0.000000000000e+00-9.778887033463e-09 7.100000000000e+01
     5.832000000000e+05 4.000000000000e+00
G29 2019 08 03 22 00 00 1.343400217593e-04-9.890754881781e-12 0.000000000000e+00
     7.200000000000e+01 1.133125000000e+02 3.778014512326e-09 8.977154602866e-01
     5.865469574928e-06 1.216684468091e-03 1.047551631927e-05 5.153719306946e+03
     5.976000000000e+05 2.793967723846e-08 1.186003048965e+00-1.862645149231e-09
     9.856074336600e-01 1.870937500000e+02 1.895390932355e+00-7.826040271705e-09
     4.253748614275e-10 1.000000000000e+00 2.064000000000e+03 0.000000000000e+00
     0.000000000000e+00 0.000000000000e+00-9.778887033463e-09 7.200000000000e+01
     5.904060000000e+05 4.000000000000e+00
G30 2019 08 03 00 00 00-1.172861084342e-05-7.730704965070e-12 0.000000000000e+00
     5.400000000000e+01-1.493750000000e+01 5.489871532328e-09-1.274188926969e+00
    -8.624047040939e-07 4.191300715320e-03 4.271045327187e-06 5.153764368057e+03
     5.184000000000e+05 3.911554813385e-08-9.316272443228e-01-4.097819328308e-08
     9.401100011379e-01 2.859687500000e+02-2.916040387393e+00-8.604286974518e-09
    -2.310810540249e-10 1.000000000000e+00 2.064000000000e+03 0.000000000000e+00
     0.000000000000e+00 0.000000000000e+00 3.725290298462e-09 5.400000000000e+01
     5.112060000000e+05 4.000000000000e+00
G30 2019 08 03 02 00 00-1.178402453661e-05-7.730704965070e-12 0.000000000000e+00
     5.500000000000e+01-7.312500000000e+00 5.604876322739e-09-2.242563182729e-01
    -5.736947059631e-07 4.190544132143e-03 4.317611455917e-06 5.153762220383e+03
     5.256000000000e+05 2.421438694000e-08-9.316891945147e-01 4.842877388000e-08
     9.401078842955e-01 2.833437500000e+02-2.915839528740e+00-8.687504726586e-09
    -2.653681965077e-10 0.000000000000e+00 2.064000000000e+03 0.000000000000e+00
     0.000000000000e+00 0.000000000000e+00 3.725290298462e-09 5.500000000000e+01
     5.184000000000e+05 4.000000000000e+00
G30 2019 08 03 04 00 00-1.183990389109e-05-7.730704965070e-12 0.000000000000e+00
     5.600000000000e+01-6.125000000000e+00 5.707380592453e-09 8.258614753711e-01
    -2.402812242508e-07 4.190681851469e-03 4.183501005173e-06 5.153762506485e+03
     5.328000000000e+05 1.117587089539e-08-9.317521526571e-01-9.313225746155e-09
     9.401058303585e-01 2.835625000000e+02-2.915822291177e+00-8.743935648589e-09
    -2.425101015191e-10 0.000000000000e+00 2.064000000000e+03 0.000000000000e+00
     0.000000000000e+00 0.000000000000e+00 3.725290298462e-09 5.600000000000e+01
     5.256000000000e+05 4.000000000000e+00
G30 2019 08 03 06 00 00-1.189531758428e-05-7.730704965070e-12 0.000000000000e+00
     5.700000000000e+01-6.687500000000e+00 5.781669401166e-09 1.875989130546e+00
    -2.384185791016e-07 4.190648673102e-03 4.524365067482e-06 5.153762557983e+03
     5.400000000000e+05-3.352761268616e-08-9.318156696343e-01 1.173466444016e-07
     9.401044420492e-01 2.834687500000e+02-2.915814076892e+00-8.731077970157e-09
    -1.335769925893e-10 0.000000000000e+00 2.064000000000e+03 0.000000000000e+00
     0.000000000000e+00 0.000000000000e+00 3.725290298462e-09 5.700000000000e+01
     5.328000000000e+05 4.000000000000e+00
G30 2019 08 03 08 00 00-1.195073127747e-05-7.730704965070e-12 0.000000000000e+00
     5.800000000000e+01-1.078125000000e+01 5.675593554110e-09 2.926015923371e+00
    -4.433095455170e-07 4.190144129097e-03 4.442408680916e-06 5.153763832092e+03
     5.472000000000e+05-6.705522537231e-08-9.318785239096e-01-4.284083843231e-08
     9.401042899057e-01 2.860625000000e+02-2.915705649792e+00-8.598929608505e-09
    -6.285976121851e-11 0.000000000000e+00 2.064000000000e+03 0.000000000000e+00
     0.000000000000e+00 0.000000000000e+00 3.725290298462e-09 5.800000000000e+01
     5.444100000000e+05 4.000000000000e+00
G30 2019 08 03 10 00 00-1.200661063194e-05-7.730704965070e-12 0.000000000000e+00
     8.800000000000e+01-5.187500000000e+00 5.622019893981e-09-2.306965081967e+00
    -4.339963197708e-07 4.189352737740e-03 4.414469003677e-06 5.153765419006e+03
     5.544000000000e+05 9.313225746155e-09-9.319409554015e-01-1.341104507446e-07
     9.401037179048e-01 2.884062500000e+02-2.915776241441e+00-8.670003997610e-09
    -8.928943354902e-12 1.000000000000e+00 2.064000000000e+03 0.000000000000e+00
     0.000000000000e+00 0.000000000000e+00 3.725290298462e-09 8.800000000000e+01
     5.472060000000e+05 4.000000000000e+00
G30 2019 08 03 12 00 00-1.206202432513e-05-7.730704965070e-12 0.000000000000e+00
     9.200000000000e+01-1.906250000000e+00 5.512372469582e-09-1.256865835198e+00
    -2.756714820862e-07 4.189163562842e-03 3.902241587639e-06 5.153765233994e+03
     5.616000000000e+05 5.587935447693e-08-9.320040832425e-01 9.313225746155e-09
     9.401041362993e-01 2.889687500000e+02-2.915742941037e+00-8.682504518307e-09
     1.110760553350e-10 0.000000000000e+00 2.064000000000e+03 0.000000000000e+00
     0.000000000000e+00 0.000000000000e+00 3.725290298462e-09 9.200000000000e+01
     5.544000000000e+05 4.000000000000e+00
G30 2019 08 03 22 00 00-1.233769580722e-05-7.730704965070e-12 0.000000000000e+00
     8.900000000000e+01 1.037500000000e+01 5.453798601174e-09-2.289680153340e+00
     4.693865776062e-07 4.186763428152e-03 4.133209586143e-06 5.153765913010e+03
     5.976000000000e+05 3.725290298462e-09-9.323141560440e-01-6.332993507385e-08
     9.401043908471e-01 2.889062500000e+02-2.915450215518e+00-8.627502227241e-09
    -5.643092200298e-11 1.000000000000e+00 2.064000000000e+03 0.000000000000e+00
     0.000000000000e+00 0.000000000000e+00 3.725290298462e-09 8.900000000000e+01
     5.916060000000e+05 4.000000000000e+00
G31 2019 08 03 00 00 00 2.001225948334e-05-2.614797267597e-12 0.000000000000e+00
     1.010000000000e+02-1.300000000000e+01 5.131285167195e-09-1.548372025053e+00
    -7.115304470062e-07 9.249690920115e-03 4.773959517479e-06 5.153649410248e+03
     5.184000000000e+05-1.862645149231e-08-9.444762527698e-01-1.098960638046e-07
     9.592006388082e-01 2.874687500000e+02 1.308470795632e-02-8.367848554480e-09
    -1.560779298437e-10 0.000000000000e+00 2.064000000000e+03 0.000000000000e+00
     0.000000000000e+00 0.000000000000e+00-1.350417733192e-08 1.010000000000e+02
     5.112000000000e+05 4.000000000000e+00
G31 2019 08 03 07 59 44 1.993076875806e-05-2.614797267597e-12 0.000000000000e+00
     4.000000000000e+00 8.125000000000e-01 5.232003648238e-09 2.650044135832e+00
     1.303851604462e-07 9.251980227418e-03 4.583969712257e-06 5.153652698517e+03
     5.471840000000e+05-2.365559339523e-07-9.447212476606e-01 7.636845111847e-08
     9.591943014471e-01 2.917187500000e+02 1.313308080553e-02-8.327489730516e-09
     2.785830326729e-11 0.000000000000e+00 2.064000000000e+03 0.000000000000e+00
     0.000000000000e+00 0.000000000000e+00-1.350417733192e-08 4.000000000000e+00
     5.406900000000e+05 4.000000000000e+00
G31 2019 08 03 14 00 00 1.987395808101e-05-2.614797267597e-12 0.000000000000e+00
     4.600000000000e+01-1.812500000000e+00 5.082354557610e-09-4.802268586905e-01
     1.862645149231e-09 9.252847521566e-03 4.315748810768e-06 5.153651241302e+03
     5.688000000000e+05 1.695007085800e-07-9.449023349750e-01-7.264316082001e-08
     9.591958740840e-01 2.891562500000e+02 1.315011941240e-02-8.527498061666e-09
     4.535903224290e-11 0.000000000000e+00 2.064000000000e+03 0.000000000000e+00
     0.000000000000e+00 0.000000000000e+00-1.350417733192e-08 4.600000000000e+01
     5.654100000000e+05 4.000000000000e+00
G31 2019 08 03 16 00 00 1.985486596823e-05-2.614797267597e-12 0.000000000000e+00
     4.800000000000e+01 8.750000000000e-01 4.978421656959e-09 5.699524448071e-01
     1.620501279831e-07 9.253912023269e-03 4.153698682785e-06 5.153653306961e+03
     5.760000000000e+05 1.844018697739e-07-9.449635712629e-01 8.195638656616e-08
     9.591962485910e-01 2.962812500000e+02 1.316861215984e-02-8.487853553170e-09
     8.214627886510e-12 0.000000000000e+00 2.064000000000e+03 0.000000000000e+00
     0.000000000000e+00 0.000000000000e+00-1.350417733192e-08 4.800000000000e+01
     5.688000000000e+05 4.000000000000e+00
G31 2019 08 03 18 00 00 1.983623951674e-05-2.614797267597e-12 0.000000000000e+00
     6.000000000000e+01 9.843750000000e+00 4.925919470032e-09 1.620017944981e+00
     7.245689630508e-07 9.254660806619e-03 4.559755325317e-06 5.153655996323e+03
     5.832000000000e+05-7.450580596924e-09-9.450235040908e-01 1.192092895508e-07
     9.591960481712e-01 2.915937500000e+02 1.329808772445e-02-8.389992334000e-09
    -1.128618440060e-10 1.000000000000e+00 2.064000000000e+03 0.000000000000e+00
     0.000000000000e+00 0.000000000000e+00-1.350417733192e-08 6.000000000000e+01
     5.760060000000e+05 4.000000000000e+00
